start=new Date('2021-11-27T00:00:00.000Z').valueOf();
sats=[{"ARG_OF_PERICENTER":"73.4258","REF_FRAME":"TEME","ELEMENT_SET_NO":"999","APOAPSIS":"548.239","TIME_SYSTEM":"UTC","PERIAPSIS":"546.228","PERIOD":"95.593","INCLINATION":"53.0546","NORAD_CAT_ID":"45786","SEMIMAJOR_AXIS":"6925.369","ECCENTRICITY":"0.00014520","EPHEMERIS_TYPE":"0","CENTER_NAME":"EARTH","OBJECT_TYPE":"PAYLOAD","MEAN_MOTION_DOT":"0.00001735","GP_ID":"190558223","MEAN_ANOMALY":"286.6890","COUNTRY_CODE":"US","BSTAR":"0.00013535000000","MEAN_MOTION_DDOT":"0.0000000000000","EPOCH":"2021-11-26T20:27:04.805280","CLASSIFICATION_TYPE":"U","TLE_LINE2":"2 45786  53.0546  16.9567 0001452  73.4258 286.6890 15.06393410 81055","OBJECT_NAME":"STARLINK-1513","MEAN_MOTION":"15.06393410","DECAY_DATE":null,"REV_AT_EPOCH":"8105","OBJECT_ID":"2020-038BJ","SITE":"AFETR","TLE_LINE1":"1 45786U 20038BJ  21330.85213895  .00001735  00000-0  13535-3 0  9999","MEAN_ELEMENT_THEORY":"SGP4","RCS_SIZE":"LARGE","LAUNCH_DATE":"2020-06-13","FILE":"3224952","RA_OF_ASC_NODE":"16.9567"},{"TLE_LINE2":"2 45787  53.0562  16.9291 0001379  67.9354 292.1781 15.06397193 81054","OBJECT_NAME":"STARLINK-1517","DECAY_DATE":null,"OBJECT_ID":"2020-038BK","REV_AT_EPOCH":"8105","MEAN_MOTION":"15.06397193","SITE":"AFETR","TLE_LINE1":"1 45787U 20038BK  21330.85950618  .00001931  00000-0  14847-3 0  9996","LAUNCH_DATE":"2020-06-13","FILE":"3224952","RA_OF_ASC_NODE":"16.9291","MEAN_ELEMENT_THEORY":"SGP4","RCS_SIZE":"LARGE","GP_ID":"190558479","MEAN_ANOMALY":"292.1781","MEAN_MOTION_DDOT":"0.0000000000000","COUNTRY_CODE":"US","BSTAR":"0.00014847000000","CLASSIFICATION_TYPE":"U","EPOCH":"2021-11-26T20:37:41.333952","SEMIMAJOR_AXIS":"6925.357","ECCENTRICITY":"0.00013790","EPHEMERIS_TYPE":"0","CENTER_NAME":"EARTH","OBJECT_TYPE":"PAYLOAD","MEAN_MOTION_DOT":"0.00001931","ELEMENT_SET_NO":"999","APOAPSIS":"548.177","TIME_SYSTEM":"UTC","ARG_OF_PERICENTER":"67.9354","REF_FRAME":"TEME","PERIOD":"95.592","PERIAPSIS":"546.267","INCLINATION":"53.0562","NORAD_CAT_ID":"45787"},{"GP_ID":"190558504","MEAN_ANOMALY":"301.7677","EPOCH":"2021-11-26T23:10:16.264128","CLASSIFICATION_TYPE":"U","MEAN_MOTION_DDOT":"0.0000000000000","BSTAR":"-0.00000920670000","COUNTRY_CODE":"US","OBJECT_ID":"2020-055A","REV_AT_EPOCH":"7319","DECAY_DATE":null,"MEAN_MOTION":"15.06403311","OBJECT_NAME":"STARLINK-1522","TLE_LINE2":"2 46027  53.0541 306.4583 0001756  58.3483 301.7677 15.06403311 73193","RA_OF_ASC_NODE":"306.4583","FILE":"3224952","LAUNCH_DATE":"2020-08-07","RCS_SIZE":"LARGE","MEAN_ELEMENT_THEORY":"SGP4","SITE":"AFETR","TLE_LINE1":"1 46027U 20055A   21330.96546602 -.00000419  00000-0 -92067-5 0  9993","TIME_SYSTEM":"UTC","APOAPSIS":"548.419","ELEMENT_SET_NO":"999","REF_FRAME":"TEME","ARG_OF_PERICENTER":"58.3483","NORAD_CAT_ID":"46027","INCLINATION":"53.0541","PERIAPSIS":"545.987","PERIOD":"95.592","EPHEMERIS_TYPE":"0","ECCENTRICITY":"0.00017560","SEMIMAJOR_AXIS":"6925.338","MEAN_MOTION_DOT":"-0.00000419","OBJECT_TYPE":"PAYLOAD","CENTER_NAME":"EARTH"},{"RCS_SIZE":"LARGE","MEAN_ELEMENT_THEORY":"SGP4","RA_OF_ASC_NODE":"306.6827","LAUNCH_DATE":"2020-08-07","FILE":"3224952","TLE_LINE1":"1 46028U 20055B   21330.91387416  .00000130  00000-0  27642-4 0  9999","SITE":"AFETR","MEAN_MOTION":"15.06392898","REV_AT_EPOCH":"7320","OBJECT_ID":"2020-055B","DECAY_DATE":null,"OBJECT_NAME":"STARLINK-1523","TLE_LINE2":"2 46028  53.0548 306.6827 0001909  62.1456 297.9726 15.06392898 73207","CLASSIFICATION_TYPE":"U","EPOCH":"2021-11-26T21:55:58.727424","BSTAR":"0.00002764200000","COUNTRY_CODE":"US","MEAN_MOTION_DDOT":"0.0000000000000","MEAN_ANOMALY":"297.9726","GP_ID":"190557252","MEAN_MOTION_DOT":"0.00000130","OBJECT_TYPE":"PAYLOAD","CENTER_NAME":"EARTH","EPHEMERIS_TYPE":"0","ECCENTRICITY":"0.00019090","SEMIMAJOR_AXIS":"6925.370","NORAD_CAT_ID":"46028","INCLINATION":"53.0548","PERIOD":"95.593","PERIAPSIS":"545.913","REF_FRAME":"TEME","ARG_OF_PERICENTER":"62.1456","APOAPSIS":"548.557","TIME_SYSTEM":"UTC","ELEMENT_SET_NO":"999"},{"ARG_OF_PERICENTER":"59.0027","REF_FRAME":"TEME","ELEMENT_SET_NO":"999","APOAPSIS":"548.416","TIME_SYSTEM":"UTC","INCLINATION":"53.0556","NORAD_CAT_ID":"46029","PERIOD":"95.592","PERIAPSIS":"546.025","ECCENTRICITY":"0.00017260","EPHEMERIS_TYPE":"0","SEMIMAJOR_AXIS":"6925.355","OBJECT_TYPE":"PAYLOAD","MEAN_MOTION_DOT":"0.00001523","CENTER_NAME":"EARTH","GP_ID":"190557502","MEAN_ANOMALY":"301.1131","CLASSIFICATION_TYPE":"U","EPOCH":"2021-11-26T15:23:11.773536","COUNTRY_CODE":"US","BSTAR":"0.00012115000000","MEAN_MOTION_DDOT":"0.0000000000000","MEAN_MOTION":"15.06397790","DECAY_DATE":null,"OBJECT_ID":"2020-055C","REV_AT_EPOCH":"7315","TLE_LINE2":"2 46029  53.0556 307.9162 0001726  59.0027 301.1131 15.06397790 73157","OBJECT_NAME":"STARLINK-1526","MEAN_ELEMENT_THEORY":"SGP4","RCS_SIZE":"LARGE","LAUNCH_DATE":"2020-08-07","FILE":"3224952","RA_OF_ASC_NODE":"307.9162","TLE_LINE1":"1 46029U 20055C   21330.64110849  .00001523  00000-0  12115-3 0  9999","SITE":"AFETR"},{"MEAN_MOTION_DOT":"0.00000789","OBJECT_TYPE":"PAYLOAD","CENTER_NAME":"EARTH","EPHEMERIS_TYPE":"0","ECCENTRICITY":"0.00018660","SEMIMAJOR_AXIS":"6925.353","NORAD_CAT_ID":"46030","INCLINATION":"53.0539","PERIAPSIS":"545.926","PERIOD":"95.592","REF_FRAME":"TEME","ARG_OF_PERICENTER":"63.4994","TIME_SYSTEM":"UTC","APOAPSIS":"548.510","ELEMENT_SET_NO":"999","RCS_SIZE":"LARGE","MEAN_ELEMENT_THEORY":"SGP4","RA_OF_ASC_NODE":"306.6317","FILE":"3224952","LAUNCH_DATE":"2020-08-07","SITE":"AFETR","TLE_LINE1":"1 46030U 20055D   21330.92492710  .00000789  00000-0  71900-4 0  9993","MEAN_MOTION":"15.06398526","REV_AT_EPOCH":"7315","OBJECT_ID":"2020-055D","DECAY_DATE":null,"OBJECT_NAME":"STARLINK-1534","TLE_LINE2":"2 46030  53.0539 306.6317 0001866  63.4994 296.6186 15.06398526 73151","CLASSIFICATION_TYPE":"U","EPOCH":"2021-11-26T22:11:53.701440","BSTAR":"0.00007190000000","COUNTRY_CODE":"US","MEAN_MOTION_DDOT":"0.0000000000000","MEAN_ANOMALY":"296.6186","GP_ID":"190557749"},{"MEAN_ANOMALY":"309.6814","GP_ID":"190558005","MEAN_MOTION_DDOT":"0.0000000000000","BSTAR":"0.00004651300000","COUNTRY_CODE":"US","EPOCH":"2021-11-26T22:17:11.945472","CLASSIFICATION_TYPE":"U","OBJECT_NAME":"STARLINK-1544","TLE_LINE2":"2 46031  53.0543 306.6156 0001594  50.4315 309.6814 15.06399656 73180","OBJECT_ID":"2020-055E","REV_AT_EPOCH":"7318","DECAY_DATE":null,"MEAN_MOTION":"15.06399656","SITE":"AFETR","TLE_LINE1":"1 46031U 20055E   21330.92861048  .00000411  00000-0  46513-4 0  9992","RA_OF_ASC_NODE":"306.6156","FILE":"3224952","LAUNCH_DATE":"2020-08-07","RCS_SIZE":"LARGE","MEAN_ELEMENT_THEORY":"SGP4","TIME_SYSTEM":"UTC","APOAPSIS":"548.319","ELEMENT_SET_NO":"999","REF_FRAME":"TEME","ARG_OF_PERICENTER":"50.4315","PERIOD":"95.592","PERIAPSIS":"546.111","NORAD_CAT_ID":"46031","INCLINATION":"53.0543","SEMIMAJOR_AXIS":"6925.350","EPHEMERIS_TYPE":"0","ECCENTRICITY":"0.00015940","CENTER_NAME":"EARTH","MEAN_MOTION_DOT":"0.00000411","OBJECT_TYPE":"PAYLOAD"},{"CENTER_NAME":"EARTH","MEAN_MOTION_DOT":"0.00001076","OBJECT_TYPE":"PAYLOAD","SEMIMAJOR_AXIS":"6925.350","EPHEMERIS_TYPE":"0","ECCENTRICITY":"0.00016720","PERIOD":"95.592","PERIAPSIS":"546.057","NORAD_CAT_ID":"46032","INCLINATION":"53.0538","TIME_SYSTEM":"UTC","APOAPSIS":"548.373","ELEMENT_SET_NO":"999","REF_FRAME":"TEME","ARG_OF_PERICENTER":"57.4428","SITE":"AFETR","TLE_LINE1":"1 46032U 20055F   21330.95810083  .00001076  00000-0  91137-4 0  9999","RA_OF_ASC_NODE":"306.4816","LAUNCH_DATE":"2020-08-07","FILE":"3224952","RCS_SIZE":"LARGE","MEAN_ELEMENT_THEORY":"SGP4","OBJECT_NAME":"STARLINK-1555","TLE_LINE2":"2 46032  53.0538 306.4816 0001672  57.4428 302.6722 15.06399533 73203","OBJECT_ID":"2020-055F","REV_AT_EPOCH":"7320","DECAY_DATE":null,"MEAN_MOTION":"15.06399533","MEAN_MOTION_DDOT":"0.0000000000000","BSTAR":"0.00009113700000","COUNTRY_CODE":"US","CLASSIFICATION_TYPE":"U","EPOCH":"2021-11-26T22:59:39.911712","GP_ID":"190556753","MEAN_ANOMALY":"302.6722"},{"RCS_SIZE":"LARGE","MEAN_ELEMENT_THEORY":"SGP4","RA_OF_ASC_NODE":"307.7589","FILE":"3224952","LAUNCH_DATE":"2020-08-07","SITE":"AFETR","TLE_LINE1":"1 46033U 20055G   21330.67428239  .00000814  00000-0  73529-4 0  9991","MEAN_MOTION":"15.06400327","OBJECT_ID":"2020-055G","REV_AT_EPOCH":"7313","DECAY_DATE":null,"OBJECT_NAME":"STARLINK-1556","TLE_LINE2":"2 46033  53.0544 307.7589 0001695  65.6677 294.4489 15.06400327 73138","CLASSIFICATION_TYPE":"U","EPOCH":"2021-11-26T16:10:57.998496","BSTAR":"0.00007352900000","COUNTRY_CODE":"US","MEAN_MOTION_DDOT":"0.0000000000000","GP_ID":"190557003","MEAN_ANOMALY":"294.4489","MEAN_MOTION_DOT":"0.00000814","OBJECT_TYPE":"PAYLOAD","CENTER_NAME":"EARTH","EPHEMERIS_TYPE":"0","ECCENTRICITY":"0.00016950","SEMIMAJOR_AXIS":"6925.348","NORAD_CAT_ID":"46033","INCLINATION":"53.0544","PERIAPSIS":"546.039","PERIOD":"95.592","REF_FRAME":"TEME","ARG_OF_PERICENTER":"65.6677","TIME_SYSTEM":"UTC","APOAPSIS":"548.386","ELEMENT_SET_NO":"999"},{"SITE":"AFETR","TLE_LINE1":"1 46034U 20055H   21330.67796758  .00000308  00000-0  39584-4 0  9997","LAUNCH_DATE":"2020-08-07","FILE":"3224952","RA_OF_ASC_NODE":"307.7524","MEAN_ELEMENT_THEORY":"SGP4","RCS_SIZE":"LARGE","TLE_LINE2":"2 46034  53.0548 307.7524 0001614  55.4819 304.6322 15.06402343 73138","OBJECT_NAME":"STARLINK-1557","DECAY_DATE":null,"OBJECT_ID":"2020-055H","REV_AT_EPOCH":"7313","MEAN_MOTION":"15.06402343","MEAN_MOTION_DDOT":"0.0000000000000","COUNTRY_CODE":"US","BSTAR":"0.00003958400000","CLASSIFICATION_TYPE":"U","EPOCH":"2021-11-26T16:16:16.398912","GP_ID":"190558249","MEAN_ANOMALY":"304.6322","CENTER_NAME":"EARTH","OBJECT_TYPE":"PAYLOAD","MEAN_MOTION_DOT":"0.00000308","SEMIMAJOR_AXIS":"6925.341","ECCENTRICITY":"0.00016140","EPHEMERIS_TYPE":"0","PERIAPSIS":"546.089","PERIOD":"95.592","INCLINATION":"53.0548","NORAD_CAT_ID":"46034","ELEMENT_SET_NO":"999","APOAPSIS":"548.324","TIME_SYSTEM":"UTC","ARG_OF_PERICENTER":"55.4819","REF_FRAME":"TEME"}];
